OBJECT_NAME,OBJECT_ID,EPOCH,MEAN_MOTION,ECCENTRICITY,INCLINATION,RA_OF_ASC_NODE,ARG_OF_PERICENTER,MEAN_ANOMALY,EPHEMERIS_TYPE,CLASSIFICATION_TYPE,NORAD_CAT_ID,ELEMENT_SET_NO,REV_AT_EPOCH,BSTAR,MEAN_MOTION_DOT,MEAN_MOTION_DDOT
KUIPER-00613,2026-118AC,2026-06-04T04:00:03.000096,15.35942287,.0009851,51.8622,116.2792,134.0619,56.6564,0,U,69293,999,130,.25975E-3,.8863E-4,0
KUIPER-00618,2026-118AD,2026-06-04T04:00:03.000096,15.38399919,.0002414,51.8709,116.1760,52.5966,182.3492,0,U,69294,999,130,.43179E-3,.16251E-3,0
KUIPER-00620,2026-118AE,2026-06-04T04:00:03.000096,15.38093132,.000312,51.8706,116.1906,77.6998,151.5023,0,U,69295,999,192,.39734E-3,.14769E-3,0
STARLINK-37501,2026-119A,2026-06-04T04:00:03.000096,15.94431553,.0001112,97.2834,180.2228,100.0691,175.9433,0,U,69296,999,179,-.62007E-2,-.229081E-1,.14491E-2
STARLINK-37496,2026-119B,2026-06-04T04:00:03.000096,15.94626318,.0001247,97.2831,180.2235,103.8109,173.6093,0,U,69297,999,179,-.61446E-2,-.2293592E-1,.14557E-2
STARLINK-37519,2026-119C,2026-06-04T04:00:03.000096,15.95023911,.0001072,97.2832,180.2252,95.3931,186.1457,0,U,69298,999,179,-.59922E-2,-.2284444E-1,.1451E-2
STARLINK-37455,2026-119D,2026-06-04T04:00:03.000096,15.94829960,.0001176,97.2830,180.2242,101.4154,177.6306,0,U,69299,999,179,-.60508E-2,-.2283164E-1,.14463E-2
STARLINK-37456,2026-119E,2026-06-04T04:00:03.000096,15.95190692,.0001178,97.2831,180.2257,109.3782,173.4548,0,U,69300,999,179,-.58048E-2,-.2233193E-1,.13916E-2
STARLINK-37630,2026-119F,2026-06-04T04:00:03.000096,15.95383482,.0001222,97.2832,180.2264,113.2760,171.1321,0,U,69301,999,195,-.5706E-2,-.2218019E-1,.13765E-2
STARLINK-37804,2026-119G,2026-06-04T04:00:03.000096,15.95577926,.0001199,97.2830,180.2268,110.3537,175.7080,0,U,69302,999,195,-.56229E-2,-.2208655E-1,.13683E-2
STARLINK-37730,2026-119H,2026-06-04T04:00:03.000096,15.95777513,.0001168,97.2830,180.2277,102.2813,185.3838,0,U,69303,999,195,-.5609E-2,-.2226731E-1,.13931E-2
STARLINK-37731,2026-119J,2026-06-04T04:00:03.000096,15.95972640,.0001191,97.2828,180.2280,84.4277,204.6270,0,U,69304,999,195,-.57554E-2,-.2308224E-1,.14966E-2
STARLINK-37734,2026-119K,2026-06-04T04:00:03.000096,15.96163173,.0001135,97.2830,180.2287,87.4499,203.2558,0,U,69305,999,195,-.56738E-2,-.2299017E-1,.14884E-2
STARLINK-37701,2026-119L,2026-06-04T04:00:03.000096,15.96318599,.0001205,97.2828,180.2291,81.1582,210.7411,0,U,69306,999,195,-.55632E-2,-.2273429E-1,.14591E-2
STARLINK-37732,2026-119M,2026-06-04T04:00:03.000096,15.96500593,.0001172,97.2828,180.2300,91.6860,201.7042,0,U,69307,999,195,-.55045E-2,-.2271683E-1,.146E-2
STARLINK-37689,2026-119N,2026-06-04T04:00:03.000096,15.96657301,.0001143,97.2825,180.2302,81.5236,213.1339,0,U,69308,999,195,-.53999E-2,-.2247715E-1,.1433E-2
STARLINK-37619,2026-119P,2026-06-04T04:00:03.000096,15.96817435,.0001148,97.2826,180.2309,89.1881,206.8626,0,U,69309,999,195,-.52942E-2,-.2223173E-1,.14056E-2
STARLINK-37794,2026-119Q,2026-06-04T04:00:03.000096,15.96972474,.0001123,97.2827,180.2315,82.2065,215.1069,0,U,69310,999,195,-.52061E-2,-.2204827E-1,.13858E-2
STARLINK-37795,2026-119R,2026-06-04T04:00:03.000096,15.97134771,.0001226,97.2825,180.2319,84.1873,214.5490,0,U,69311,999,195,-.51099E-2,-.2183544E-1,.13627E-2
STARLINK-37790,2026-119S,2026-06-04T04:00:03.000096,15.97290945,.0001157,97.2823,180.2326,79.3073,220.7493,0,U,69312,999,195,-.5035E-2,-.217006E-1,.13491E-2
STARLINK-37676,2026-119T,2026-06-04T04:00:03.000096,15.97448878,.0001082,97.2826,180.2333,83.5987,217.8728,0,U,69313,999,195,-.49561E-2,-.2154698E-1,.13332E-2
STARLINK-37617,2026-119U,2026-06-04T04:00:03.000096,15.97608043,.0001113,97.2825,180.2335,84.1640,218.8711,0,U,69314,999,195,-.48422E-2,-.2123935E-1,.12993E-2
STARLINK-37627,2026-119V,2026-06-04T04:00:03.000096,15.97761964,.0001048,97.2825,180.2343,87.7976,216.4934,0,U,69315,999,195,-.47916E-2,-.2119585E-1,.12966E-2
STARLINK-37738,2026-119W,2026-06-04T04:00:03.000096,15.97916270,.0001133,97.2824,180.2350,82.8232,222.8254,0,U,69316,999,195,-.47211E-2,-.2106369E-1,.12834E-2
STARLINK-37799,2026-119X,2026-06-04T04:00:03.000096,15.98079040,.0001113,97.2823,180.2356,74.2589,232.8427,0,U,69317,999,190,-.46789E-2,-.2106362E-1,.12859E-2
STARLINK-37802,2026-119Y,2026-06-04T04:00:03.000096,15.98221025,.0001151,97.2824,180.2362,85.1799,223.2619,0,U,69318,999,195,-.45809E-2,-.2078757E-1,.12559E-2
STARLINK-37803,2026-119Z,2026-06-04T04:00:03.000096,15.98351874,.000115,97.2825,180.2367,83.6991,225.7866,0,U,69319,999,190,-.45198E-2,-.2066034E-1,.12431E-2
GUOWANG TEST OBJECT A,2026-120A,2026-06-01T05:26:32.097696,15.38786350,.00091599,54.9978,99.6159,274.0654,85.9327,0,U,69320,999,23,.28022468E-3,.10528E-3,0
GUOWANG TEST OBJECT B,2026-120B,2026-06-01T05:26:06.351360,15.39106645,.00091466,54.9976,99.6150,282.2486,77.7518,0,U,69321,999,23,.70944119E-3,.27608E-3,0
