KUIPER-00613            
1 69293U 26118AC  26155.16670139  .00008863  00000+0  25975-3 0  9994
2 69293  51.8622 116.2792 0009851 134.0619  56.6564 15.35942287  1302
KUIPER-00618            
1 69294U 26118AD  26155.16670139  .00016251  00000+0  43179-3 0  9991
2 69294  51.8709 116.1760 0002414  52.5966 182.3492 15.38399919  1308
KUIPER-00620            
1 69295U 26118AE  26155.16670139  .00014769  00000+0  39734-3 0  9996
2 69295  51.8706 116.1906 0003120  77.6998 151.5023 15.38093132  1920
STARLINK-37501          
1 69296U 26119A   26155.16670139 -.02290810  14491-2 -62007-2 0  9995
2 69296  97.2834 180.2228 0001112 100.0691 175.9433 15.94431553  1791
STARLINK-37496          
1 69297U 26119B   26155.16670139 -.02293592  14557-2 -61446-2 0  9995
2 69297  97.2831 180.2235 0001247 103.8109 173.6093 15.94626318  1793
STARLINK-37519          
1 69298U 26119C   26155.16670139 -.02284444  14510-2 -59922-2 0  9997
2 69298  97.2832 180.2252 0001072  95.3931 186.1457 15.95023911  1792
STARLINK-37455          
1 69299U 26119D   26155.16670139 -.02283164  14463-2 -60508-2 0  9995
2 69299  97.2830 180.2242 0001176 101.4154 177.6306 15.94829960  1796
STARLINK-37456          
1 69300U 26119E   26155.16670139 -.02233193  13916-2 -58048-2 0  9993
2 69300  97.2831 180.2257 0001178 109.3782 173.4548 15.95190692  1798
STARLINK-37630          
1 69301U 26119F   26155.16670139 -.02218019  13765-2 -57060-2 0  9999
2 69301  97.2832 180.2264 0001222 113.2760 171.1321 15.95383482  1951
STARLINK-37804          
1 69302U 26119G   26155.16670139 -.02208655  13683-2 -56229-2 0  9990
2 69302  97.2830 180.2268 0001199 110.3537 175.7080 15.95577926  1957
STARLINK-37730          
1 69303U 26119H   26155.16670139 -.02226731  13931-2 -56090-2 0  9998
2 69303  97.2830 180.2277 0001168 102.2813 185.3838 15.95777513  1953
STARLINK-37731          
1 69304U 26119J   26155.16670139 -.02308224  14966-2 -57554-2 0  9992
2 69304  97.2828 180.2280 0001191  84.4277 204.6270 15.95972640  1959
STARLINK-37734          
1 69305U 26119K   26155.16670139 -.02299017  14884-2 -56738-2 0  9994
2 69305  97.2830 180.2287 0001135  87.4499 203.2558 15.96163173  1955
STARLINK-37701          
1 69306U 26119L   26155.16670139 -.02273429  14591-2 -55632-2 0  9991
2 69306  97.2828 180.2291 0001205  81.1582 210.7411 15.96318599  1955
STARLINK-37732          
1 69307U 26119M   26155.16670139 -.02271683  14600-2 -55045-2 0  9991
2 69307  97.2828 180.2300 0001172  91.6860 201.7042 15.96500593  1952
STARLINK-37689          
1 69308U 26119N   26155.16670139 -.02247715  14330-2 -53999-2 0  9997
2 69308  97.2825 180.2302 0001143  81.5236 213.1339 15.96657301  1951
STARLINK-37619          
1 69309U 26119P   26155.16670139 -.02223173  14056-2 -52942-2 0  9992
2 69309  97.2826 180.2309 0001148  89.1881 206.8626 15.96817435  1959
STARLINK-37794          
1 69310U 26119Q   26155.16670139 -.02204827  13858-2 -52061-2 0  9990
2 69310  97.2827 180.2315 0001123  82.2065 215.1069 15.96972474  1959
STARLINK-37795          
1 69311U 26119R   26155.16670139 -.02183544  13627-2 -51099-2 0  9997
2 69311  97.2825 180.2319 0001226  84.1873 214.5490 15.97134771  1956
STARLINK-37790          
1 69312U 26119S   26155.16670139 -.02170060  13491-2 -50350-2 0  9995
2 69312  97.2823 180.2326 0001157  79.3073 220.7493 15.97290945  1952
STARLINK-37676          
1 69313U 26119T   26155.16670139 -.02154698  13332-2 -49561-2 0  9991
2 69313  97.2826 180.2333 0001082  83.5987 217.8728 15.97448878  1950
STARLINK-37617          
1 69314U 26119U   26155.16670139 -.02123935  12993-2 -48422-2 0  9999
2 69314  97.2825 180.2335 0001113  84.1640 218.8711 15.97608043  1955
STARLINK-37627          
1 69315U 26119V   26155.16670139 -.02119585  12966-2 -47916-2 0  9993
2 69315  97.2825 180.2343 0001048  87.7976 216.4934 15.97761964  1956
STARLINK-37738          
1 69316U 26119W   26155.16670139 -.02106369  12834-2 -47211-2 0  9992
2 69316  97.2824 180.2350 0001133  82.8232 222.8254 15.97916270  1958
STARLINK-37799          
1 69317U 26119X   26155.16670139 -.02106362  12859-2 -46789-2 0  9992
2 69317  97.2823 180.2356 0001113  74.2589 232.8427 15.98079040  1906
STARLINK-37802          
1 69318U 26119Y   26155.16670139 -.02078757  12559-2 -45809-2 0  9998
2 69318  97.2824 180.2362 0001151  85.1799 223.2619 15.98221025  1955
STARLINK-37803          
1 69319U 26119Z   26155.16670139 -.02066034  12431-2 -45198-2 0  9994
2 69319  97.2825 180.2367 0001150  83.6991 225.7866 15.98351874  1900
GUOWANG TEST OBJECT A   
1 69320U 26120A   26152.22676039  .00010528  00000+0  28022-3 0  9994
2 69320  54.9978  99.6159 0009159 274.0654  85.9327 15.38786350   230
GUOWANG TEST OBJECT B   
1 69321U 26120B   26152.22646240  .00027608  00000+0  70944-3 0  9993
2 69321  54.9976  99.6150 0009146 282.2486  77.7518 15.39106645   235
